CCSDS_OMM_VERS = 2.0
CREATION_DATE  = 
ORIGINATOR     = 

OBJECT_NAME    = UNKNOWN
OBJECT_ID      = 
CENTER_NAME    = EARTH
REF_FRAME      = TEME
TIME_SYSTEM    = UTC
MEAN_ELEMENT_THEORY = SGP/SGP4

EPOCH          = 2026-03-12T10:01:15.930336
MEAN_MOTION    = 14.41363647
ECCENTRICITY   = .0045523
INCLINATION    = 98.4344
RA_OF_ASC_NODE = 46.2011
ARG_OF_PERICENTER = 252.6204
MEAN_ANOMALY   = 259.5505

EPHEMERIS_TYPE = 0
CLASSIFICATION_TYPE = U
NORAD_CAT_ID   = 85004
ELEMENT_SET_NO = 999
REV_AT_EPOCH   = 64381
BSTAR          = .42925E-3
MEAN_MOTION_DOT = .1363E-4
MEAN_MOTION_DDOT = 0

CCSDS_OMM_VERS = 2.0
CREATION_DATE  = 
ORIGINATOR     = 

OBJECT_NAME    = UNKNOWN
OBJECT_ID      = 
CENTER_NAME    = EARTH
REF_FRAME      = TEME
TIME_SYSTEM    = UTC
MEAN_ELEMENT_THEORY = SGP/SGP4

EPOCH          = 2026-03-11T02:29:12.043104
MEAN_MOTION    = 13.75268917
ECCENTRICITY   = .0026932
INCLINATION    = 99.2472
RA_OF_ASC_NODE = 294.3168
ARG_OF_PERICENTER = 21.2025
MEAN_ANOMALY   = 130.9894

EPHEMERIS_TYPE = 0
CLASSIFICATION_TYPE = U
NORAD_CAT_ID   = 85010
ELEMENT_SET_NO = 999
REV_AT_EPOCH   = 61606
BSTAR          = .12107E-2
MEAN_MOTION_DOT = .1121E-4
MEAN_MOTION_DDOT = 0

CCSDS_OMM_VERS = 2.0
CREATION_DATE  = 
ORIGINATOR     = 

OBJECT_NAME    = UNKNOWN
OBJECT_ID      = 
CENTER_NAME    = EARTH
REF_FRAME      = TEME
TIME_SYSTEM    = UTC
MEAN_ELEMENT_THEORY = SGP/SGP4

EPOCH          = 2026-03-10T03:11:53.192256
MEAN_MOTION    = 14.62416904
ECCENTRICITY   = .0014237
INCLINATION    = 74.0470
RA_OF_ASC_NODE = 230.9475
ARG_OF_PERICENTER = 119.5179
MEAN_ANOMALY   = 240.7409

EPHEMERIS_TYPE = 0
CLASSIFICATION_TYPE = U
NORAD_CAT_ID   = 85015
ELEMENT_SET_NO = 999
REV_AT_EPOCH   = 65538
BSTAR          = .16375E-3
MEAN_MOTION_DOT = .8E-5
MEAN_MOTION_DDOT = 0

CCSDS_OMM_VERS = 2.0
CREATION_DATE  = 
ORIGINATOR     = 

OBJECT_NAME    = UNKNOWN
OBJECT_ID      = 
CENTER_NAME    = EARTH
REF_FRAME      = TEME
TIME_SYSTEM    = UTC
MEAN_ELEMENT_THEORY = SGP/SGP4

EPOCH          = 2026-03-12T08:23:22.273440
MEAN_MOTION    = 14.80384185
ECCENTRICITY   = .0002062
INCLINATION    = 99.8395
RA_OF_ASC_NODE = 111.4749
ARG_OF_PERICENTER = 106.8915
MEAN_ANOMALY   = 318.6203

EPHEMERIS_TYPE = 0
CLASSIFICATION_TYPE = U
NORAD_CAT_ID   = 85023
ELEMENT_SET_NO = 999
REV_AT_EPOCH   = 64206
BSTAR          = .37228E-2
MEAN_MOTION_DOT = .28468E-3
MEAN_MOTION_DDOT = 0

CCSDS_OMM_VERS = 2.0
CREATION_DATE  = 
ORIGINATOR     = 

OBJECT_NAME    = UNKNOWN
OBJECT_ID      = 
CENTER_NAME    = EARTH
REF_FRAME      = TEME
TIME_SYSTEM    = UTC
MEAN_ELEMENT_THEORY = SGP/SGP4

EPOCH          = 2026-03-09T23:33:36.059904
MEAN_MOTION    = 13.74285407
ECCENTRICITY   = .0170141
INCLINATION    = 66.0393
RA_OF_ASC_NODE = 247.8675
ARG_OF_PERICENTER = 143.6874
MEAN_ANOMALY   = 217.5879

EPHEMERIS_TYPE = 0
CLASSIFICATION_TYPE = U
NORAD_CAT_ID   = 85027
ELEMENT_SET_NO = 999
REV_AT_EPOCH   = 61660
BSTAR          = .28115E-3
MEAN_MOTION_DOT = .216E-5
MEAN_MOTION_DDOT = 0

CCSDS_OMM_VERS = 2.0
CREATION_DATE  = 
ORIGINATOR     = 

OBJECT_NAME    = UNKNOWN
OBJECT_ID      = 
CENTER_NAME    = EARTH
REF_FRAME      = TEME
TIME_SYSTEM    = UTC
MEAN_ELEMENT_THEORY = SGP/SGP4

EPOCH          = 2026-03-11T10:00:47.935008
MEAN_MOTION    = 13.46727823
ECCENTRICITY   = .0108155
INCLINATION    = 102.1689
RA_OF_ASC_NODE = 59.4689
ARG_OF_PERICENTER = 178.7562
MEAN_ANOMALY   = 181.3849

EPHEMERIS_TYPE = 0
CLASSIFICATION_TYPE = U
NORAD_CAT_ID   = 85047
ELEMENT_SET_NO = 999
REV_AT_EPOCH   = 58858
BSTAR          = .19193E-1
MEAN_MOTION_DOT = .11976E-3
MEAN_MOTION_DDOT = 0

CCSDS_OMM_VERS = 2.0
CREATION_DATE  = 
ORIGINATOR     = 

OBJECT_NAME    = UNKNOWN
OBJECT_ID      = 
CENTER_NAME    = EARTH
REF_FRAME      = TEME
TIME_SYSTEM    = UTC
MEAN_ELEMENT_THEORY = SGP/SGP4

EPOCH          = 2026-03-11T22:37:25.710816
MEAN_MOTION    = 12.77710823
ECCENTRICITY   = .0271801
INCLINATION    = 102.4016
RA_OF_ASC_NODE = 67.9371
ARG_OF_PERICENTER = 16.4013
MEAN_ANOMALY   = 40.7965

EPHEMERIS_TYPE = 0
CLASSIFICATION_TYPE = U
NORAD_CAT_ID   = 85061
ELEMENT_SET_NO = 999
REV_AT_EPOCH   = 56717
BSTAR          = .15397E-1
MEAN_MOTION_DOT = .3909E-4
MEAN_MOTION_DDOT = 0

CCSDS_OMM_VERS = 2.0
CREATION_DATE  = 
ORIGINATOR     = 

OBJECT_NAME    = UNKNOWN
OBJECT_ID      = 
CENTER_NAME    = EARTH
REF_FRAME      = TEME
TIME_SYSTEM    = UTC
MEAN_ELEMENT_THEORY = SGP/SGP4

EPOCH          = 2026-03-11T07:45:57.229920
MEAN_MOTION    = 14.40797406
ECCENTRICITY   = .0013892
INCLINATION    = 74.0443
RA_OF_ASC_NODE = 59.0034
ARG_OF_PERICENTER = 265.4410
MEAN_ANOMALY   = 160.4876

EPHEMERIS_TYPE = 0
CLASSIFICATION_TYPE = U
NORAD_CAT_ID   = 85100
ELEMENT_SET_NO = 999
REV_AT_EPOCH   = 64610
BSTAR          = .1507E-3
MEAN_MOTION_DOT = .456E-5
MEAN_MOTION_DDOT = 0

CCSDS_OMM_VERS = 2.0
CREATION_DATE  = 
ORIGINATOR     = 

OBJECT_NAME    = UNKNOWN
OBJECT_ID      = 
CENTER_NAME    = EARTH
REF_FRAME      = TEME
TIME_SYSTEM    = UTC
MEAN_ELEMENT_THEORY = SGP/SGP4

EPOCH          = 2026-03-12T06:08:49.722720
MEAN_MOTION    = 13.73035738
ECCENTRICITY   = .0010829
INCLINATION    = 100.0524
RA_OF_ASC_NODE = 181.5178
ARG_OF_PERICENTER = 144.3951
MEAN_ANOMALY   = 244.8262

EPHEMERIS_TYPE = 0
CLASSIFICATION_TYPE = U
NORAD_CAT_ID   = 85106
ELEMENT_SET_NO = 999
REV_AT_EPOCH   = 61535
BSTAR          = .80354E-3
MEAN_MOTION_DOT = .694E-5
MEAN_MOTION_DDOT = 0

CCSDS_OMM_VERS = 2.0
CREATION_DATE  = 
ORIGINATOR     = 

OBJECT_NAME    = UNKNOWN
OBJECT_ID      = 
CENTER_NAME    = EARTH
REF_FRAME      = TEME
TIME_SYSTEM    = UTC
MEAN_ELEMENT_THEORY = SGP/SGP4

EPOCH          = 2026-03-10T21:07:51.836448
MEAN_MOTION    = 14.83209721
ECCENTRICITY   = .0006579
INCLINATION    = 98.3995
RA_OF_ASC_NODE = 303.0954
ARG_OF_PERICENTER = 220.9025
MEAN_ANOMALY   = 139.1695

EPHEMERIS_TYPE = 0
CLASSIFICATION_TYPE = U
NORAD_CAT_ID   = 85151
ELEMENT_SET_NO = 999
REV_AT_EPOCH   = 49257
BSTAR          = .30959E-2
MEAN_MOTION_DOT = .25323E-3
MEAN_MOTION_DDOT = 0

CCSDS_OMM_VERS = 2.0
CREATION_DATE  = 
ORIGINATOR     = 

OBJECT_NAME    = UNKNOWN
OBJECT_ID      = 
CENTER_NAME    = EARTH
REF_FRAME      = TEME
TIME_SYSTEM    = UTC
MEAN_ELEMENT_THEORY = SGP/SGP4

EPOCH          = 2026-03-12T05:34:34.170816
MEAN_MOTION    = 13.71673445
ECCENTRICITY   = .0216482
INCLINATION    = 99.8618
RA_OF_ASC_NODE = 219.6907
ARG_OF_PERICENTER = 85.7625
MEAN_ANOMALY   = 34.8749

EPHEMERIS_TYPE = 0
CLASSIFICATION_TYPE = U
NORAD_CAT_ID   = 85210
ELEMENT_SET_NO = 999
REV_AT_EPOCH   = 61442
BSTAR          = .34895E-3
MEAN_MOTION_DOT = .327E-5
MEAN_MOTION_DDOT = 0

CCSDS_OMM_VERS = 2.0
CREATION_DATE  = 
ORIGINATOR     = 

OBJECT_NAME    = UNKNOWN
OBJECT_ID      = 
CENTER_NAME    = EARTH
REF_FRAME      = TEME
TIME_SYSTEM    = UTC
MEAN_ELEMENT_THEORY = SGP/SGP4

EPOCH          = 2026-03-11T04:44:06.389952
MEAN_MOTION    = 14.37661347
ECCENTRICITY   = .0206518
INCLINATION    = 98.0221
RA_OF_ASC_NODE = 163.8145
ARG_OF_PERICENTER = 220.6044
MEAN_ANOMALY   = 137.9587

EPHEMERIS_TYPE = 0
CLASSIFICATION_TYPE = U
NORAD_CAT_ID   = 85217
ELEMENT_SET_NO = 999
REV_AT_EPOCH   = 64056
BSTAR          = .93127E-3
MEAN_MOTION_DOT = .3534E-4
MEAN_MOTION_DDOT = 0

CCSDS_OMM_VERS = 2.0
CREATION_DATE  = 
ORIGINATOR     = 

OBJECT_NAME    = UNKNOWN
OBJECT_ID      = 
CENTER_NAME    = EARTH
REF_FRAME      = TEME
TIME_SYSTEM    = UTC
MEAN_ELEMENT_THEORY = SGP/SGP4

EPOCH          = 2026-02-23T08:31:05.057760
MEAN_MOTION    = 14.01835433
ECCENTRICITY   = .0516167
INCLINATION    = 65.5338
RA_OF_ASC_NODE = 24.2147
ARG_OF_PERICENTER = 354.4749
MEAN_ANOMALY   = 5.0755

EPHEMERIS_TYPE = 0
CLASSIFICATION_TYPE = U
NORAD_CAT_ID   = 85237
ELEMENT_SET_NO = 999
REV_AT_EPOCH   = 61852
BSTAR          = .26977E-2
MEAN_MOTION_DOT = .13478E-3
MEAN_MOTION_DDOT = 0

CCSDS_OMM_VERS = 2.0
CREATION_DATE  = 
ORIGINATOR     = 

OBJECT_NAME    = UNKNOWN
OBJECT_ID      = 
CENTER_NAME    = EARTH
REF_FRAME      = TEME
TIME_SYSTEM    = UTC
MEAN_ELEMENT_THEORY = SGP/SGP4

EPOCH          = 2026-03-12T06:51:16.398144
MEAN_MOTION    = 13.88361439
ECCENTRICITY   = .0062765
INCLINATION    = 99.0684
RA_OF_ASC_NODE = 2.9366
ARG_OF_PERICENTER = 319.3327
MEAN_ANOMALY   = 193.5417

EPHEMERIS_TYPE = 0
CLASSIFICATION_TYPE = U
NORAD_CAT_ID   = 85238
ELEMENT_SET_NO = 999
REV_AT_EPOCH   = 62326
BSTAR          = .83455E-4
MEAN_MOTION_DOT = .58E-6
MEAN_MOTION_DDOT = 0

CCSDS_OMM_VERS = 2.0
CREATION_DATE  = 
ORIGINATOR     = 

OBJECT_NAME    = UNKNOWN
OBJECT_ID      = 
CENTER_NAME    = EARTH
REF_FRAME      = TEME
TIME_SYSTEM    = UTC
MEAN_ELEMENT_THEORY = SGP/SGP4

EPOCH          = 2026-03-12T10:18:47.121120
MEAN_MOTION    = 14.21803534
ECCENTRICITY   = .0223407
INCLINATION    = 97.9912
RA_OF_ASC_NODE = 71.5362
ARG_OF_PERICENTER = 39.6738
MEAN_ANOMALY   = 322.0548

EPHEMERIS_TYPE = 0
CLASSIFICATION_TYPE = U
NORAD_CAT_ID   = 85246
ELEMENT_SET_NO = 999
REV_AT_EPOCH   = 63581
BSTAR          = .90243E-3
MEAN_MOTION_DOT = .2521E-4
MEAN_MOTION_DDOT = 0

CCSDS_OMM_VERS = 2.0
CREATION_DATE  = 
ORIGINATOR     = 

OBJECT_NAME    = UNKNOWN
OBJECT_ID      = 
CENTER_NAME    = EARTH
REF_FRAME      = TEME
TIME_SYSTEM    = UTC
MEAN_ELEMENT_THEORY = SGP/SGP4

EPOCH          = 2026-03-11T22:56:43.079424
MEAN_MOTION    = 14.00443319
ECCENTRICITY   = .0050149
INCLINATION    = 100.4235
RA_OF_ASC_NODE = 124.4057
ARG_OF_PERICENTER = 4.4931
MEAN_ANOMALY   = 119.3719

EPHEMERIS_TYPE = 0
CLASSIFICATION_TYPE = U
NORAD_CAT_ID   = 85373
ELEMENT_SET_NO = 999
REV_AT_EPOCH   = 62461
BSTAR          = .1596E-2
MEAN_MOTION_DOT = .2337E-4
MEAN_MOTION_DDOT = 0

